$$SOE
2459580.500000000, A.D. 2022-Jan-01 00:00:00.0000, 2.522916844970565E+08, -3.382453645618729E+08, -2.773272291705385E+07,
2459587.500000000, A.D. 2022-Jan-08 00:00:00.0000, 2.597853395430467E+08, -3.317636318607496E+08, -2.753275258025505E+07,
2459594.500000000, A.D. 2022-Jan-15 00:00:00.0000, 2.671116703968515E+08, -3.250679742173204E+08, -2.731502400083059E+07,
2459601.500000000, A.D. 2022-Jan-22 00:00:00.0000, 2.742651628483267E+08, -3.181617356995465E+08, -2.707959616675545E+07,
2459608.500000000, A.D. 2022-Jan-29 00:00:00.0000, 2.812403161420910E+08, -3.110483702785875E+08, -2.682653528186250E+07,
2459615.500000000, A.D. 2022-Feb-05 00:00:00.0000, 2.880316409392717E+08, -3.037314456897920E+08, -2.655591482106188E+07,
2459622.500000000, A.D. 2022-Feb-12 00:00:00.0000, 2.946336596187048E+08, -2.962146485211852E+08, -2.626781588500994E+07,
2459629.500000000, A.D. 2022-Feb-19 00:00:00.0000, 3.010409076044512E+08, -2.885017881600602E+08, -2.596232753953035E+07,
2459636.500000000, A.D. 2022-Feb-26 00:00:00.0000, 3.072479344202262E+08, -2.805968003207499E+08, -2.563954707906529E+07,
2459643.500000000, A.D. 2022-Mar-05 00:00:00.0000, 3.132493046422260E+08, -2.725037507698886E+08, -2.529958027970187E+07,
2459650.500000000, A.D. 2022-Mar-12 00:00:00.0000, 3.190395989851144E+08, -2.642268393136781E+08, -2.494254166803902E+07,
2459657.500000000, A.D. 2022-Mar-19 00:00:00.0000, 3.246134156059760E+08, -2.557704040174934E+08, -2.456855481067865E+07,
2459664.500000000, A.D. 2022-Mar-26 00:00:00.0000, 3.299653716628910E+08, -2.471389256616697E+08, -2.417775262741491E+07,
2459671.500000000, A.D. 2022-Apr-02 00:00:00.0000, 3.350901052103326E+08, -2.383370324860856E+08, -2.377027773940280E+07,
2459678.500000000, A.D. 2022-Apr-09 00:00:00.0000, 3.399822777187538E+08, -2.293695052135926E+08, -2.334628287729582E+07,
2459685.500000000, A.D. 2022-Apr-16 00:00:00.0000, 3.446365775937525E+08, -2.202412816922725E+08, -2.290593132901223E+07,
2459692.500000000, A.D. 2022-Apr-23 00:00:00.0000, 3.490477234469030E+08, -2.109574600679514E+08, -2.244939722243558E+07,
2459699.500000000, A.D. 2022-Apr-30 00:00:00.0000, 3.532104652679807E+08, -2.015233027281991E+08, -2.197686565525211E+07,
2459706.500000000, A.D. 2022-May-07 00:00:00.0000, 3.571195865796409E+08, -1.919442429836434E+08, -2.148853311428346E+07,
2459713.500000000, A.D. 2022-May-14 00:00:00.0000, 3.607699089848140E+08, -1.822258914385173E+08, -2.098460806349563E+07,
2459720.500000000, A.D. 2022-May-21 00:00:00.0000, 3.641562970988778E+08, -1.723740412824022E+08, -2.046531145228986E+07,
2459727.500000000, A.D. 2022-May-28 00:00:00.0000, 3.672736634103234E+08, -1.623946734518870E+08, -1.993087717826457E+07,
2459734.500000000, A.D. 2022-Jun-04 00:00:00.0000, 3.701169733682698E+08, -1.522939619621730E+08, -1.938155255501252E+07,
2459741.500000000, A.D. 2022-Jun-11 00:00:00.0000, 3.726812508626790E+08, -1.420782793895847E+08, -1.881759879750751E+07,
2459748.500000000, A.D. 2022-Jun-18 00:00:00.0000, 3.749615841594445E+08, -1.317542024707657E+08, -1.823929152699585E+07,
2459755.500000000, A.D. 2022-Jun-25 00:00:00.0000, 3.769531323473235E+08, -1.213285178285465E+08, -1.764692130030023E+07,
2459762.500000000, A.D. 2022-Jul-02 00:00:00.0000, 3.786511324608762E+08, -1.108082278667293E+08, -1.704079418067978E+07,
2459769.500000000, A.D. 2022-Jul-09 00:00:00.0000, 3.800509076994106E+08, -1.002005566319053E+08, -1.642123237083607E+07,
2459776.500000000, A.D. 2022-Jul-16 00:00:00.0000, 3.811478767171112E+08, -8.951295453106105E+07, -1.578857481331487E+07,
2459783.500000000, A.D. 2022-Jul-23 00:00:00.0000, 3.819375618190764E+08, -7.875310179757027E+07, -1.514317754878810E+07,
2459790.500000000, A.D. 2022-Jul-30 00:00:00.0000, 3.824155961772730E+08, -6.792891402839723E+07, -1.448541411248086E+07,
2459797.500000000, A.D. 2022-Aug-06 00:00:00.0000, 3.825777336900634E+08, -5.704854910610427E+07, -1.381567624411776E+07,
2459804.500000000, A.D. 2022-Aug-13 00:00:00.0000, 3.824198606886678E+08, -4.612041270649716E+07, -1.313437460863318E+07,
2459811.500000000, A.D. 2022-Aug-20 00:00:00.0000, 3.819380079497947E+08, -3.515316284733884E+07, -1.244193942243407E+07,
2459818.500000000, A.D. 2022-Aug-27 00:00:00.0000, 3.811283631103550E+08, -2.415571415309645E+07, -1.173882104820664E+07,
2459825.500000000, A.D. 2022-Sep-03 00:00:00.0000, 3.799872837581927E+08, -1.313724189019420E+07, -1.102549058711519E+07,
2459832.500000000, A.D. 2022-Sep-10 00:00:00.0000, 3.785113113127221E+08, -2.107185688012876E+06, -1.030244047142126E+07,
2459839.500000000, A.D. 2022-Sep-17 00:00:00.0000, 3.766971857458505E+08, 8.924747118475130E+06, -9.570185056689683E+06,
2459846.500000000, A.D. 2022-Sep-24 00:00:00.0000, 3.745418612209746E+08, 1.994857854456341E+07, -8.829261219200872E+06,
2459853.500000000, A.D. 2022-Oct-01 00:00:00.0000, 3.720425229021228E+08, 3.095405746396807E+07, -8.080228978017986E+06,
2459860.500000000, A.D. 2022-Oct-08 00:00:00.0000, 3.691966053442564E+08, 4.193065817420425E+07, -7.323672131726647E+06,
2459867.500000000, A.D. 2022-Oct-15 00:00:00.0000, 3.660018115310016E+08, 5.286758131242026E+07, -6.560198720980274E+06,
2459874.500000000, A.D. 2022-Oct-22 00:00:00.0000, 3.624561303795748E+08, 6.375375553947305E+07, -5.790441248334873E+06,
2459881.500000000, A.D. 2022-Oct-29 00:00:00.0000, 3.585578552064727E+08, 7.457783750064689E+07, -5.015057090582643E+06,
2459888.500000000, A.D. 2022-Nov-05 00:00:00.0000, 3.543056052344736E+08, 8.532821291187860E+07, -4.234729065797579E+06,
2459895.500000000, A.D. 2022-Nov-12 00:00:00.0000, 3.496983481494545E+08, 9.599300015408465E+07, -3.450165863898367E+06,
2459902.500000000, A.D. 2022-Nov-19 00:00:00.0000, 3.447354229526684E+08, 1.065600555409841E+08, -2.662102344505459E+06,
2459909.500000000, A.D. 2022-Nov-26 00:00:00.0000, 3.394165633231830E+08, 1.170169799863183E+08, -1.871299749713197E+06,
2459916.500000000, A.D. 2022-Dec-03 00:00:00.0000, 3.337419215947640E+08, 1.273511271861766E+08, -1.078545838359781E+06,
2459923.500000000, A.D. 2022-Dec-10 00:00:00.0000, 3.277120933159835E+08, 1.375496134658969E+08, -2.846549342040122E+05,
2459930.500000000, A.D. 2022-Dec-17 00:00:00.0000, 3.213281423258491E+08, 1.475993293999213E+08, 5.095321185264438E+05,
2459937.500000000, A.D. 2022-Dec-24 00:00:00.0000, 3.145916263458067E+08, 1.574869532733575E+08, 1.303148088188738E+06,
2459944.500000000, A.D. 2022-Dec-31 00:00:00.0000, 3.075046233204520E+08, 1.671989666255956E+08, 2.095299565046161E+06,
2459951.500000000, A.D. 2023-Jan-07 00:00:00.0000, 3.000697584823986E+08, 1.767216729648814E+08, 2.885067325858586E+06,
2459958.500000000, A.D. 2023-Jan-14 00:00:00.0000, 2.922902300006515E+08, 1.860412202747903E+08, 3.671507087090045E+06,
2459965.500000000, A.D. 2023-Jan-21 00:00:00.0000, 2.841698323824882E+08, 1.951436242648305E+08, 4.453650459987655E+06,
2459972.500000000, A.D. 2023-Jan-28 00:00:00.0000, 2.757129810966900E+08, 2.040147922774107E+08, 5.230505767427102E+06,
2459979.500000000, A.D. 2023-Feb-04 00:00:00.0000, 2.669247379783213E+08, 2.126405509684871E+08, 6.001059000813544E+06,
2459986.500000000, A.D. 2023-Feb-11 00:00:00.0000, 2.578108353666554E+08, 2.210066776441060E+08, 6.764275077757657E+06,
2459993.500000000, A.D. 2023-Feb-18 00:00:00.0000, 2.483776986416329E+08, 2.290989344834774E+08, 7.519099350093409E+06,
2460000.500000000, A.D. 2023-Feb-25 00:00:00.0000, 2.386324671281883E+08, 2.369031055118485E+08, 8.264459334400907E+06,
2460007.500000000, A.D. 2023-Mar-04 00:00:00.0000, 2.285830131528373E+08, 2.444050363362914E+08, 8.999266664892703E+06,
2460014.500000000, A.D. 2023-Mar-11 00:00:00.0000, 2.182379589416478E+08, 2.515906766102329E+08, 9.722419272315845E+06,
2460021.500000000, A.D. 2023-Mar-18 00:00:00.0000, 2.076066910543751E+08, 2.584461251145552E+08, 1.043280378581338E+07,
2460028.500000000, A.D. 2023-Mar-25 00:00:00.0000, 1.966993722033587E+08, 2.649576773122147E+08, 1.112929813946697E+07,
2460035.500000000, A.D. 2023-Apr-01 00:00:00.0000, 1.855269505305815E+08, 2.711118756307169E+08, 1.181077437866338E+07,
2460042.500000000, A.D. 2023-Apr-08 00:00:00.0000, 1.741011653789843E+08, 2.768955635015624E+08, 1.247610182062222E+07,
2460049.500000000, A.D. 2023-Apr-15 00:00:00.0000, 1.624345468647175E+08, 2.822959417944180E+08, 1.312415068695006E+07,
2460056.500000000, A.D. 2023-Apr-22 00:00:00.0000, 1.505404107111949E+08, 2.873006243012813E+08, 1.375379578484012E+07,
2460063.500000000, A.D. 2023-Apr-29 00:00:00.0000, 1.384328507638999E+08, 2.918976941813188E+08, 1.436392015728247E+07,
2460070.500000000, A.D. 2023-May-06 00:00:00.0000, 1.261267271297244E+08, 2.960757627415194E+08, 1.495341899143523E+07,
2460077.500000000, A.D. 2023-May-13 00:00:00.0000, 1.136376486981723E+08, 2.998240292063197E+08, 1.552120378056231E+07,
2460084.500000000, A.D. 2023-May-20 00:00:00.0000, 1.009819500586038E+08, 3.031323404878653E+08, 1.606620665287149E+07,
2460091.500000000, A.D. 2023-May-27 00:00:00.0000, 8.817666284032899E+07, 3.059912503870736E+08, 1.658738481785817E+07,
2460098.500000000, A.D. 2023-Jun-03 00:00:00.0000, 7.523948142668441E+07, 3.083920776729011E+08, 1.708372509372519E+07,
2460105.500000000, A.D. 2023-Jun-10 00:00:00.0000, 6.218872302779251E+07, 3.103269624164025E+08, 1.755424847556099E+07,
2460112.500000000, A.D. 2023-Jun-17 00:00:00.0000, 4.904328223571281E+07, 3.117889198873990E+08, 1.799801469084492E+07,
2460119.500000000, A.D. 2023-Jun-24 00:00:00.0000, 3.582258049539559E+07, 3.127718914255085E+08, 1.841412667435926E+07,
2460126.500000000, A.D. 2023-Jul-01 00:00:00.0000, 2.254651094139548E+07, 3.132707924719601E+08, 1.880173496176700E+07,
2460133.500000000, A.D. 2023-Jul-08 00:00:00.0000, 9.235377214150796E+06, 3.132815579544439E+08, 1.916004217525566E+07,
2460140.500000000, A.D. 2023-Jul-15 00:00:00.0000, -4.090174647491023E+06, 3.128011815731819E+08, 1.948830743809280E+07,
2460147.500000000, A.D. 2023-Jul-22 00:00:00.0000, -1.740922727322550E+07, 3.118277473741124E+08, 1.978585026355708E+07,
$$EOE